              M50 Cartesian                         J2K Cartesian  
    -----------------------------------       --------------------------------
     X    =        -992244.79                 X    =         -225525.60
     Y    =      -22217873.04  feet           Y    =        -6774959.72  meter
     Z    =        -784703.04                 Z    =         -240459.73
     XDOT =      15698.072732                 XDOT =        4760.038590
     YDOT =      -1368.528205  feet/sec       YDOT =        -363.759055  meter/sec
     ZDOT =      19615.291608                 ZDOT =        6001.924550
 
              TDR Cartesian                         TDR Cartesian  
    -----------------------------------       --------------------------------
     X    =      -18716233.71                 X    =        -5704708.03
     Y    =       12013085.00  feet           Y    =         3661588.31  meter
     Z    =        -789034.77                 Z    =         -240497.80
     XDOT =      -8126.950834                 XDOT =       -2477.094614
     YDOT =     -11413.554051  feet/sec       YDOT =       -3478.851275  meter/sec
     ZDOT =      19716.038749                 ZDOT =        6009.448611
  
  
    The mean element set is posted at the UTC for which position is
    just north of the next ascending node relative to the above
    vector time
 
 
    TWO LINE MEAN ELEMENT SET
  
    ISS
    1 25544U 98067A   16126.71435466  .00016717  00000-0  10270-3 0  9144
    2 25544  51.6425 269.9132 0001693  81.0051 279.1293 15.54376753 38371
  
  
    Satellite: ISS
    Catalog Number: 25544
    Epoch time:      16126.71435466   =   yrday.fracday
    Element set:     914
    Inclination:       51.6425  deg
    RA of node:       269.9132  deg
    Eccentricity:     .0001693     
    Arg of perigee:    81.0051  deg
    Mean anomaly:     279.1293  deg
    Mean motion:   15.54376753  rev/day
    Decay rate:    1.67170E-04  rev/day^2
    Epoch rev:            3837
    Checksum:              319
 
 
    Coasting Arc #16 (Orbit 3852)
    ---------------------------------------
 
    Vector Time (GMT): 2016/127/17:08:00.000
    Vector Time (MET): N/A
    Weight (LBS)     : 945238.6
 
              M50 Cartesian                         M50 Keplerian  
    -----------------------------------       --------------------------------
     X    =        -586431.48                 A    =         6787381.52  meter
     Y    =        6573046.99  meter          E    =           .0009233
     Z    =       -1575530.40                 I    =           51.29116
     XDOT =      -4788.932037                 Wp   =          133.35565
     YDOT =      -1790.033826  meter/sec      RA   =          264.06770  deg
     ZDOT =      -5712.822091                 TA   =           63.95734
                                              MA   =           63.86232
                                              Ha   =            221.165  n.mi
                                              Hp   =            213.514
 
              M50 Cartesian                         J2K Cartesian  
    -----------------------------------       --------------------------------
     X    =       -1923987.79                 X    =         -652235.92
     Y    =       21565114.81  feet           Y    =         6566121.20  meter
     Z    =       -5169062.98                 Z    =        -1578539.01
     XDOT =     -15711.719283                 XDOT =       -4740.808442
     YDOT =      -5872.814391  feet/sec       YDOT =       -1843.317755  meter/sec
     ZDOT =     -18742.854628                 ZDOT =       -5735.969174
 
              TDR Cartesian                         TDR Cartesian  
    -----------------------------------       --------------------------------
     X    =       19435689.89                 X    =         5923998.28
     Y    =       -9532169.06  feet           Y    =        -2905405.13  meter
     Z    =       -5183322.25                 Z    =        -1579876.62
     XDOT =       2338.189870                 XDOT =         712.680272
     YDOT =      14965.080095  feet/sec       YDOT =        4561.356413  meter/sec
     ZDOT =     -18843.045254                 ZDOT =       -5743.360193
  
  
    The mean element set is posted at the UTC for which position is
    just north of the next ascending node relative to the above
    vector time
 
 
    TWO LINE MEAN ELEMENT SET
  
    ISS
    1 25544U 98067A   16127.74299281  .00016717  00000-0  10270-3 0  9152
    2 25544  51.6419 264.7837 0001796  89.2323 270.9036 15.54433021 38539
  
  
    Satellite: ISS
    Catalog Number: 25544
    Epoch time:      16127.74299281   =   yrday.fracday
    Element set:     915
    Inclination:       51.6419  deg
    RA of node:       264.7837  deg
    Eccentricity:     .0001796     
    Arg of perigee:    89.2323  deg
    Mean anomaly:     270.9036  deg
    Mean motion:   15.54433021  rev/day
    Decay rate:    1.67170E-04  rev/day^2
    Epoch rev:            3853
    Checksum:              325
 
             </PRE>
           </TD>
        </TR>
    </TABLE>
    
    <table align="center" border="0" width="600" cellpadding="0" cellspacing="0">
      <tr>
        <td align="center" valign="top"><hr size="1" width="600" noshade="noshade" />
        <font face="Arial,helvetica" size="-2">Curator: <a href="/cgi-bin/comment.cgi?jsc-hsfwebma@mail.nasa.gov">Kim 
          Dismukes</a> | Responsible NASA Official: <a href="/cgi-bin/comment.cgi?jsc-hsfwebma@mail.nasa.gov">Amiko Kauderer</a> | Updated: 06/08/2009<br />
        <a href="http://www.nasa.gov/about/highlights/HP_Privacy.html">Privacy Policy and Important Notices</a></font></td>
      </tr>
    </table>
    </body>
    </html>
